{"type": "FeatureCollection", "features": [ {"type": "Feature", "properties": {"norad_id": 30306, "name": "FENGYUN 1C DEB", "group": "fengyun-1c-debris", "lat": -42.682292858509975, "lon": 50.28377438670232, "alt_km": 723.1836496782635, "timestamp": "2025-12-27T10:28:59.069940+00:00", "meta": {"OBJECT_NAME": "FENGYUN 1C DEB", "OBJECT_ID": "1999-025ZT", "EPOCH": "2025-12-25T20:00:41.400000", "MEAN_MOTION": 14.28266969, "ECCENTRICITY": 0.0112871, "INCLINATION": 98.5854, "RA_OF_ASC_NODE": 40.6987, "ARG_OF_PERICENTER": 318.7976, "MEAN_ANOMALY": 40.4726, "EPHEMERIS_TYPE": 0, "CLASSIFICATION_TYPE": "U", "NORAD_CAT_ID": 30306, "ELEMENT_SET_NO": 999, "REV_AT_EPOCH": 97868, "BSTAR": 0.00095479, "MEAN_MOTION_DOT": 2.505e-05, "MEAN_MOTION_DDOT": 0}, "tle": {"line1": "1 30306U 99025ZT  25359.83381250  .00002505  00000+0  95479-3 0  9999", "line2": "2 30306  98.5854  40.6987 0112871 318.7976  40.4726 14.28266969978682"}}, "geometry": {"type": "Point", "coordinates": [50.28377438670232, -42.682292858509975]}}, {"type": "Feature", "properties": {"norad_id": 30309, "name": "FENGYUN 1C DEB", "group": "fengyun-1c-debris", "lat": -7.713945152815578, "lon": -122.69767662979288, "alt_km": 864.1826541977462, "timestamp": "2025-12-27T10:28:59.069961+00:00", "meta": {"OBJECT_NAME": "FENGYUN 1C DEB", "OBJECT_ID": "1999-025ZW", "EPOCH": "2025-12-27T02:41:52.161792", "MEAN_MOTION": 13.93531675, "ECCENTRICITY": 0.0093826, "INCLINATION": 99.2242, "RA_OF_ASC_NODE": 58.2401, "ARG_OF_PERICENTER": 153.0264, "MEAN_ANOMALY": 207.5817, "EPHEMERIS_TYPE": 0, "CLASSIFICATION_TYPE": "U", "NORAD_CAT_ID": 30309, "ELEMENT_SET_NO": 999, "REV_AT_EPOCH": 96233, "BSTAR": 0.00030367, "MEAN_MOTION_DOT": 3.69e-06, "MEAN_MOTION_DDOT": 0}, "tle": {"line1": "1 30309U 99025ZW  25361.11240928  .00000369  00000+0  30367-3 0  9993", "line2": "2 30309  99.2242  58.2401 0093826 153.0264 207.5817 13.93531675962330"}}, "geometry": {"type": "Point", "coordinates": [-122.69767662979288, -7.713945152815578]}}, {"type": "Feature", "properties": {"norad_id": 30310, "name": "FENGYUN 1C DEB", "group": "fengyun-1c-debris", "lat": 8.820229347083565, "lon": -158.13411380403963, "alt_km": 1007.2817670206114, "timestamp": "2025-12-27T10:28:59.069973+00:00", "meta": {"OBJECT_NAME": "FENGYUN 1C DEB", "OBJECT_ID": "1999-025ZX", "EPOCH": "2025-12-26T20:01:03.883872", "MEAN_MOTION": 14.08426522, "ECCENTRICITY": 0.02403078, "INCLINATION": 98.6642, "RA_OF_ASC_NODE": 19.9306, "ARG_OF_PERICENTER": 317.4778, "MEAN_ANOMALY": 40.7997, "EPHEMERIS_TYPE": 0, "CLASSIFICATION_TYPE": "U", "NORAD_CAT_ID": 30310, "ELEMENT_SET_NO": 999, "REV_AT_EPOCH": 96930, "BSTAR": 0.00070957089, "MEAN_MOTION_DOT": 1.54e-05, "MEAN_MOTION_DDOT": 0}, "tle": {"line1": "1 30310U 99025ZX  25360.83407273  .00001540  00000+0  70957-3 0  9992", "line2": "2 30310  98.6642  19.9306 0240307 317.4778  40.7997 14.08426522969302"}}, "geometry": {"type": "Point", "coordinates": [-158.13411380403963, 8.820229347083565]}}, {"type": "Feature", "properties": {"norad_id": 30311, "name": "FENGYUN 1C DEB", "group": "fengyun-1c-debris", "lat": -21.774172189189095, "lon": -87.10505392551913, "alt_km": 887.6711231286581, "timestamp": "2025-12-27T10:28:59.069983+00:00", "meta": {"OBJECT_NAME": "FENGYUN 1C DEB", "OBJECT_ID": "1999-025ZY", "EPOCH": "2025-12-27T04:17:15.108576", "MEAN_MOTION": 13.77902335, "ECCENTRICITY": 0.0165703, "INCLINATION": 99.1386, "RA_OF_ASC_NODE": 96.3329, "ARG_OF_PERICENTER": 158.8428, "MEAN_ANOMALY": 201.9683, "EPHEMERIS_TYPE": 0, "CLASSIFICATION_TYPE": "U", "NORAD_CAT_ID": 30311, "ELEMENT_SET_NO": 999, "REV_AT_EPOCH": 95159, "BSTAR": 0.00044743, "MEAN_MOTION_DOT": 4.55e-06, "MEAN_MOTION_DDOT": 0}, "tle": {"line1": "1 30311U 99025ZY  25361.17864709  .00000455  00000+0  44743-3 0  9990", "line2": "2 30311  99.1386  96.3329 0165703 158.8428 201.9683 13.77902335951594"}}, "geometry": {"type": "Point", "coordinates": [-87.10505392551913, -21.774172189189095]}}, {"type": "Feature", "properties": {"norad_id": 30312, "name": "FENGYUN 1C DEB", "group": "fengyun-1c-debris", "lat": -66.74830758663987, "lon": 102.67565375289874, "alt_km": 749.8343894011723, "timestamp": "2025-12-27T10:28:59.069994+00:00", "meta": {"OBJECT_NAME": "FENGYUN 1C DEB", "OBJECT_ID": "1999-025ZZ", "EPOCH": "2025-12-27T04:26:21.477120", "MEAN_MOTION": 14.46071416, "ECCENTRICITY": 0.0011901, "INCLINATION": 98.8665, "RA_OF_ASC_NODE": 81.1095, "ARG_OF_PERICENTER": 173.1392, "MEAN_ANOMALY": 248.1607, "EPHEMERIS_TYPE": 0, "CLASSIFICATION_TYPE": "U", "NORAD_CAT_ID": 30312, "ELEMENT_SET_NO": 999, "REV_AT_EPOCH": 98129, "BSTAR": 0.0029917, "MEAN_MOTION_DOT": 0.0001065, "MEAN_MOTION_DDOT": 0}, "tle": {"line1": "1 30312U 99025ZZ  25361.18497080  .00010650  00000+0  29917-2 0  9999", "line2": "2 30312  98.8665  81.1095 0011901 173.1392 248.1607 14.46071416981296"}}, "geometry": {"type": "Point", "coordinates": [102.67565375289874, -66.74830758663987]}}, {"type": "Feature", "properties": {"norad_id": 30313, "name": "FENGYUN 1C DEB", "group": "fengyun-1c-debris", "lat": 16.384115931156657, "lon": 85.14941387588098, "alt_km": 802.8214218391122, "timestamp": "2025-12-27T10:28:59.070005+00:00", "meta": {"OBJECT_NAME": "FENGYUN 1C DEB", "OBJECT_ID": "1999-025AAA", "EPOCH": "2025-12-27T03:56:55.703040", "MEAN_MOTION": 14.25567204, "ECCENTRICITY": 0.0057117, "INCLINATION": 98.8739, "RA_OF_ASC_NODE": 87.5067, "ARG_OF_PERICENTER": 293.1998, "MEAN_ANOMALY": 126.378, "EPHEMERIS_TYPE": 0, "CLASSIFICATION_TYPE": "U", "NORAD_CAT_ID": 30313, "ELEMENT_SET_NO": 999, "REV_AT_EPOCH": 97295, "BSTAR": 0.0020751, "MEAN_MOTION_DOT": 4.952e-05, "MEAN_MOTION_DDOT": 0}, "tle": {"line1": "1 30313U 99025AAA 25361.16453360  .00004952  00000+0  20751-2 0  9996", "line2": "2 30313  98.8739  87.5067 0057117 293.1998 126.3780 14.25567204972956"}}, "geometry": {"type": "Point", "coordinates": [85.14941387588098, 16.384115931156657]}}, {"type": "Feature", "properties": {"norad_id": 30314, "name": "FENGYUN 1C DEB", "group": "fengyun-1c-debris", "lat": -13.402121675456323, "lon": 9.10256330494324, "alt_km": 949.2173977200318, "timestamp": "2025-12-27T10:28:59.070015+00:00", "meta": {"OBJECT_NAME": "FENGYUN 1C DEB", "OBJECT_ID": "1999-025AAB", "EPOCH": "2025-12-26T18:07:39.298944", "MEAN_MOTION": 14.01240206, "ECCENTRICITY": 0.0142558, "INCLINATION": 98.3819, "RA_OF_ASC_NODE": 190.4897, "ARG_OF_PERICENTER": 318.2648, "MEAN_ANOMALY": 40.7714, "EPHEMERIS_TYPE": 0, "CLASSIFICATION_TYPE": "U", "NORAD_CAT_ID": 30314, "ELEMENT_SET_NO": 999, "REV_AT_EPOCH": 96305, "BSTAR": 0.0011492394, "MEAN_MOTION_DOT": 1.849e-05, "MEAN_MOTION_DDOT": 0}, "tle": {"line1": "1 30314U 99025AAB 25360.75531596  .00001849  00000+0  11492-2 0  9993", "line2": "2 30314  98.3819 190.4897 0142558 318.2648  40.7714 14.01240206963052"}}, "geometry": {"type": "Point", "coordinates": [9.10256330494324, -13.402121675456323]}}, {"type": "Feature", "properties": {"norad_id": 30315, "name": "FENGYUN 1C DEB", "group": "fengyun-1c-debris", "lat": -42.69493210087319, "lon": -177.5133744798306, "alt_km": 836.8270086630291, "timestamp": "2025-12-27T10:28:59.070025+00:00", "meta": {"OBJECT_NAME": "FENGYUN 1C DEB", "OBJECT_ID": "1999-025AAC", "EPOCH": "2025-12-26T23:25:04.785312", "MEAN_MOTION": 14.19085036, "ECCENTRICITY": 0.0034566, "INCLINATION": 98.6016, "RA_OF_ASC_NODE": 10.0666, "ARG_OF_PERICENTER": 318.8602, "MEAN_ANOMALY": 70.7297, "EPHEMERIS_TYPE": 0, "CLASSIFICATION_TYPE": "U", "NORAD_CAT_ID": 30315, "ELEMENT_SET_NO": 999, "REV_AT_EPOCH": 97909, "BSTAR": 0.00037577, "MEAN_MOTION_DOT": 7.47e-06, "MEAN_MOTION_DDOT": 0}, "tle": {"line1": "1 30315U 99025AAC 25360.97574983  .00000747  00000+0  37577-3 0  9994", "line2": "2 30315  98.6016  10.0666 0034566 318.8602  70.7297 14.19085036979098"}}, "geometry": {"type": "Point", "coordinates": [-177.5133744798306, -42.69493210087319]}}, {"type": "Feature", "properties": {"norad_id": 30316, "name": "FENGYUN 1C DEB", "group": "fengyun-1c-debris", "lat": 75.48862321313165, "lon": 68.37394215264561, "alt_km": 695.4918547606276, "timestamp": "2025-12-27T10:28:59.070036+00:00", "meta": {"OBJECT_NAME": "FENGYUN 1C DEB", "OBJECT_ID": "1999-025AAD", "EPOCH": "2025-12-27T00:13:58.200096", "MEAN_MOTION": 14.56318752, "ECCENTRICITY": 0.003519, "INCLINATION": 98.6472, "RA_OF_ASC_NODE": 103.943, "ARG_OF_PERICENTER": 354.9067, "MEAN_ANOMALY": 5.1766, "EPHEMERIS_TYPE": 0, "CLASSIFICATION_TYPE": "U", "NORAD_CAT_ID": 30316, "ELEMENT_SET_NO": 999, "REV_AT_EPOCH": 98544, "BSTAR": 0.0025328, "MEAN_MOTION_DOT": 0.00011281, "MEAN_MOTION_DDOT": 0}, "tle": {"line1": "1 30316U 99025AAD 25361.00970139  .00011281  00000+0  25328-2 0  9998", "line2": "2 30316  98.6472 103.9430 0035190 354.9067   5.1766 14.56318752985440"}}, "geometry": {"type": "Point", "coordinates": [68.37394215264561, 75.48862321313165]}}, {"type": "Feature", "properties": {"norad_id": 30317, "name": "FENGYUN 1C DEB", "group": "fengyun-1c-debris", "lat": -63.251409251857055, "lon": 19.362744866234983, "alt_km": 868.5657752651787, "timestamp": "2025-12-27T10:28:59.070046+00:00", "meta": {"OBJECT_NAME": "FENGYUN 1C DEB", "OBJECT_ID": "1999-025AAE", "EPOCH": "2025-12-26T22:50:33.258912", "MEAN_MOTION": 14.06954772, "ECCENTRICITY": 0.0024278, "INCLINATION": 98.7866, "RA_OF_ASC_NODE": 1.0208, "ARG_OF_PERICENTER": 235.1786, "MEAN_ANOMALY": 124.7099, "EPHEMERIS_TYPE": 0, "CLASSIFICATION_TYPE": "U", "NORAD_CAT_ID": 30317, "ELEMENT_SET_NO": 999, "REV_AT_EPOCH": 97213, "BSTAR": 0.0001822, "MEAN_MOTION_DOT": 2.62e-06, "MEAN_MOTION_DDOT": 0}, "tle": {"line1": "1 30317U 99025AAE 25360.95177383  .00000262  00000+0  18220-3 0  9993", "line2": "2 30317  98.7866   1.0208 0024278 235.1786 124.7099 14.06954772972135"}}, "geometry": {"type": "Point", "coordinates": [19.362744866234983, -63.251409251857055]}}]}